{"type": "FeatureCollection", "features": [ {"type": "Feature", "properties": {"norad_id": 31959, "name": "FENGYUN 1C DEB", "group": "fengyun-1c-debris", "lat": 79.36040010388749, "lon": 101.2262772233643, "alt_km": 710.8352218743157, "timestamp": "2025-12-23T07:45:09.689372+00:00", "meta": {"OBJECT_NAME": "FENGYUN 1C DEB", "OBJECT_ID": "1999-025CNL", "EPOCH": "2025-12-21T22:06:57.352032", "MEAN_MOTION": 14.46896532, "ECCENTRICITY": 0.00273534, "INCLINATION": 98.5099, "RA_OF_ASC_NODE": 226.9733, "ARG_OF_PERICENTER": 126.577, "MEAN_ANOMALY": 233.7945, "EPHEMERIS_TYPE": 0, "CLASSIFICATION_TYPE": "U", "NORAD_CAT_ID": 31959, "ELEMENT_SET_NO": 999, "REV_AT_EPOCH": 64486, "BSTAR": 0.0023827795, "MEAN_MOTION_DOT": 8.652e-05, "MEAN_MOTION_DDOT": 0}, "tle": {"line1": "1 31959U 99025CNL 25355.92149713  .00008652  00000+0  23828-2 0  9993", "line2": "2 31959  98.5099 226.9733 0027353 126.5770 233.7945 14.46896532644868"}}, "geometry": {"type": "Point", "coordinates": [101.2262772233643, 79.36040010388749]}}, {"type": "Feature", "properties": {"norad_id": 31964, "name": "FENGYUN 1C DEB", "group": "fengyun-1c-debris", "lat": -34.67090161381141, "lon": 127.53205969384206, "alt_km": 686.3348981830959, "timestamp": "2025-12-23T07:45:09.689384+00:00", "meta": {"OBJECT_NAME": "FENGYUN 1C DEB", "OBJECT_ID": "1999-025CNR", "EPOCH": "2025-12-22T03:55:34.128480", "MEAN_MOTION": 14.58683548, "ECCENTRICITY": 0.00285796, "INCLINATION": 98.7011, "RA_OF_ASC_NODE": 120.238, "ARG_OF_PERICENTER": 0.2334, "MEAN_ANOMALY": 359.8872, "EPHEMERIS_TYPE": 0, "CLASSIFICATION_TYPE": "U", "NORAD_CAT_ID": 31964, "ELEMENT_SET_NO": 999, "REV_AT_EPOCH": 67647, "BSTAR": 0.0026112592, "MEAN_MOTION_DOT": 0.00012212, "MEAN_MOTION_DDOT": 0}, "tle": {"line1": "1 31964U 99025CNR 25356.16358945  .00012212  00000+0  26113-2 0  9992", "line2": "2 31964  98.7011 120.2380 0028579   0.2334 359.8872 14.58683548676474"}}, "geometry": {"type": "Point", "coordinates": [127.53205969384206, -34.67090161381141]}}, {"type": "Feature", "properties": {"norad_id": 31966, "name": "FENGYUN 1C DEB", "group": "fengyun-1c-debris", "lat": -70.83225786320433, "lon": 178.16279613870626, "alt_km": 632.4899759080035, "timestamp": "2025-12-23T07:45:09.689393+00:00", "meta": {"OBJECT_NAME": "FENGYUN 1C DEB", "OBJECT_ID": "1999-025CNT", "EPOCH": "2025-12-22T04:16:07.424544", "MEAN_MOTION": 14.67667095, "ECCENTRICITY": 0.00861501, "INCLINATION": 99.0169, "RA_OF_ASC_NODE": 149.721, "ARG_OF_PERICENTER": 245.6023, "MEAN_ANOMALY": 113.6171, "EPHEMERIS_TYPE": 0, "CLASSIFICATION_TYPE": "U", "NORAD_CAT_ID": 31966, "ELEMENT_SET_NO": 999, "REV_AT_EPOCH": 65881, "BSTAR": 0.0014697462, "MEAN_MOTION_DOT": 8.787e-05, "MEAN_MOTION_DDOT": 0}, "tle": {"line1": "1 31966U 99025CNT 25356.17786371  .00008787  00000+0  14697-2 0  9999", "line2": "2 31966  99.0169 149.7210 0086150 245.6023 113.6171 14.67667095658816"}}, "geometry": {"type": "Point", "coordinates": [178.16279613870626, -70.83225786320433]}}, {"type": "Feature", "properties": {"norad_id": 31972, "name": "FENGYUN 1C DEB", "group": "fengyun-1c-debris", "lat": -20.16482960867322, "lon": -144.240870585378, "alt_km": 925.7285325497933, "timestamp": "2025-12-23T07:45:09.689404+00:00", "meta": {"OBJECT_NAME": "FENGYUN 1C DEB", "OBJECT_ID": "1999-025CNZ", "EPOCH": "2025-12-22T02:03:55.063872", "MEAN_MOTION": 14.07518261, "ECCENTRICITY": 0.00765265, "INCLINATION": 99.2103, "RA_OF_ASC_NODE": 37.9145, "ARG_OF_PERICENTER": 5.9214, "MEAN_ANOMALY": 50.28, "EPHEMERIS_TYPE": 0, "CLASSIFICATION_TYPE": "U", "NORAD_CAT_ID": 31972, "ELEMENT_SET_NO": 999, "REV_AT_EPOCH": 95092, "BSTAR": 0.00013990636, "MEAN_MOTION_DOT": 1.96e-06, "MEAN_MOTION_DDOT": 0}, "tle": {"line1": "1 31972U 99025CNZ 25356.08605398  .00000196  00000+0  13991-3 0  9998", "line2": "2 31972  99.2103  37.9145 0076526   5.9214  50.2800 14.07518261950929"}}, "geometry": {"type": "Point", "coordinates": [-144.240870585378, -20.16482960867322]}}, {"type": "Feature", "properties": {"norad_id": 31974, "name": "FENGYUN 1C DEB", "group": "fengyun-1c-debris", "lat": 68.14484002689731, "lon": -13.510585978906409, "alt_km": 833.8803895414776, "timestamp": "2025-12-23T07:45:09.689414+00:00", "meta": {"OBJECT_NAME": "FENGYUN 1C DEB", "OBJECT_ID": "1999-025CPB", "EPOCH": "2025-12-21T18:28:16.954752", "MEAN_MOTION": 14.29620732, "ECCENTRICITY": 0.00713784, "INCLINATION": 98.3788, "RA_OF_ASC_NODE": 6.554, "ARG_OF_PERICENTER": 275.8649, "MEAN_ANOMALY": 83.4401, "EPHEMERIS_TYPE": 0, "CLASSIFICATION_TYPE": "U", "NORAD_CAT_ID": 31974, "ELEMENT_SET_NO": 999, "REV_AT_EPOCH": 69551, "BSTAR": 0.0018711419, "MEAN_MOTION_DOT": 4.885e-05, "MEAN_MOTION_DDOT": 0}, "tle": {"line1": "1 31974U 99025CPB 25355.76964068  .00004885  00000+0  18711-2 0  9999", "line2": "2 31974  98.3788   6.5540 0071378 275.8649  83.4401 14.29620732695518"}}, "geometry": {"type": "Point", "coordinates": [-13.510585978906409, 68.14484002689731]}}, {"type": "Feature", "properties": {"norad_id": 31978, "name": "FENGYUN 1C DEB", "group": "fengyun-1c-debris", "lat": 75.53701467712128, "lon": 5.748050962087138, "alt_km": 977.8442330498056, "timestamp": "2025-12-23T07:45:09.689423+00:00", "meta": {"OBJECT_NAME": "FENGYUN 1C DEB", "OBJECT_ID": "1999-025CPF", "EPOCH": "2025-12-18T09:15:01.115712", "MEAN_MOTION": 13.63124115, "ECCENTRICITY": 0.02630419, "INCLINATION": 98.3793, "RA_OF_ASC_NODE": 146.6417, "ARG_OF_PERICENTER": 35.0311, "MEAN_ANOMALY": 326.7827, "EPHEMERIS_TYPE": 0, "CLASSIFICATION_TYPE": "U", "NORAD_CAT_ID": 31978, "ELEMENT_SET_NO": 999, "REV_AT_EPOCH": 91667, "BSTAR": 0.0010168637, "MEAN_MOTION_DOT": 9.73e-06, "MEAN_MOTION_DDOT": 0}, "tle": {"line1": "1 31978U 99025CPF 25352.38542958  .00000973  00000+0  10169-2 0  9991", "line2": "2 31978  98.3793 146.6417 0263041  35.0311 326.7827 13.63124115916678"}}, "geometry": {"type": "Point", "coordinates": [5.748050962087138, 75.53701467712128]}}, {"type": "Feature", "properties": {"norad_id": 31979, "name": "FENGYUN 1C DEB", "group": "fengyun-1c-debris", "lat": -69.04195200091601, "lon": -115.90118512795348, "alt_km": 811.5018484566444, "timestamp": "2025-12-23T07:45:09.689436+00:00", "meta": {"OBJECT_NAME": "FENGYUN 1C DEB", "OBJECT_ID": "1999-025CPG", "EPOCH": "2025-12-21T12:25:43.662144", "MEAN_MOTION": 13.69346228, "ECCENTRICITY": 0.02679423, "INCLINATION": 99.3768, "RA_OF_ASC_NODE": 87.8961, "ARG_OF_PERICENTER": 258.229, "MEAN_ANOMALY": 98.8687, "EPHEMERIS_TYPE": 0, "CLASSIFICATION_TYPE": "U", "NORAD_CAT_ID": 31979, "ELEMENT_SET_NO": 999, "REV_AT_EPOCH": 58032, "BSTAR": 0.0028002925, "MEAN_MOTION_DOT": 3.085e-05, "MEAN_MOTION_DDOT": 0}, "tle": {"line1": "1 31979U 99025CPG 25355.51786646  .00003085  00000+0  28003-2 0  9997", "line2": "2 31979  99.3768  87.8961 0267942 258.2290  98.8687 13.69346228580328"}}, "geometry": {"type": "Point", "coordinates": [-115.90118512795348, -69.04195200091601]}}, {"type": "Feature", "properties": {"norad_id": 31980, "name": "FENGYUN 1C DEB", "group": "fengyun-1c-debris", "lat": -46.52014702033761, "lon": 88.01807146224094, "alt_km": 1356.3792225858915, "timestamp": "2025-12-23T07:45:09.689446+00:00", "meta": {"OBJECT_NAME": "FENGYUN 1C DEB", "OBJECT_ID": "1999-025CPH", "EPOCH": "2025-12-16T11:57:41.696928", "MEAN_MOTION": 13.32153551, "ECCENTRICITY": 0.04281038, "INCLINATION": 97.6145, "RA_OF_ASC_NODE": 74.8269, "ARG_OF_PERICENTER": 103.3204, "MEAN_ANOMALY": 261.6022, "EPHEMERIS_TYPE": 0, "CLASSIFICATION_TYPE": "U", "NORAD_CAT_ID": 31980, "ELEMENT_SET_NO": 999, "REV_AT_EPOCH": 89720, "BSTAR": 0.00040322723, "MEAN_MOTION_DOT": 3.01e-06, "MEAN_MOTION_DDOT": 0}, "tle": {"line1": "1 31980U 99025CPH 25350.49839927  .00000301  00000+0  40323-3 0  9990", "line2": "2 31980  97.6145  74.8269 0428103 103.3204 261.6022 13.32153551897206"}}, "geometry": {"type": "Point", "coordinates": [88.01807146224094, -46.52014702033761]}}, {"type": "Feature", "properties": {"norad_id": 31984, "name": "FENGYUN 1C DEB", "group": "fengyun-1c-debris", "lat": 14.76337428996097, "lon": -176.36438891949302, "alt_km": 777.4954600249821, "timestamp": "2025-12-23T07:45:09.689456+00:00", "meta": {"OBJECT_NAME": "FENGYUN 1C DEB", "OBJECT_ID": "1999-025CPM", "EPOCH": "2025-12-18T07:09:32.915232", "MEAN_MOTION": 14.22968839, "ECCENTRICITY": 0.00628019, "INCLINATION": 98.5578, "RA_OF_ASC_NODE": 356.4784, "ARG_OF_PERICENTER": 210.9858, "MEAN_ANOMALY": 148.7609, "EPHEMERIS_TYPE": 0, "CLASSIFICATION_TYPE": "U", "NORAD_CAT_ID": 31984, "ELEMENT_SET_NO": 999, "REV_AT_EPOCH": 94452, "BSTAR": 0.00030022048, "MEAN_MOTION_DOT": 6.47e-06, "MEAN_MOTION_DDOT": 0}, "tle": {"line1": "1 31984U 99025CPM 25352.29829763  .00000647  00000+0  30022-3 0  9999", "line2": "2 31984  98.5578 356.4784 0062801 210.9858 148.7609 14.22968839944527"}}, "geometry": {"type": "Point", "coordinates": [-176.36438891949302, 14.76337428996097]}}, {"type": "Feature", "properties": {"norad_id": 31985, "name": "FENGYUN 1C DEB", "group": "fengyun-1c-debris", "lat": -57.133841934910386, "lon": -89.22268128193646, "alt_km": 813.7892947731052, "timestamp": "2025-12-23T07:45:09.689466+00:00", "meta": {"OBJECT_NAME": "FENGYUN 1C DEB", "OBJECT_ID": "1999-025CPN", "EPOCH": "2025-12-13T23:34:50.116800", "MEAN_MOTION": 14.22977716, "ECCENTRICITY": 0.01504255, "INCLINATION": 98.2196, "RA_OF_ASC_NODE": 249.1254, "ARG_OF_PERICENTER": 243.0612, "MEAN_ANOMALY": 115.5134, "EPHEMERIS_TYPE": 0, "CLASSIFICATION_TYPE": "U", "NORAD_CAT_ID": 31985, "ELEMENT_SET_NO": 999, "REV_AT_EPOCH": 95628, "BSTAR": 0.00043991826, "MEAN_MOTION_DOT": 1.071e-05, "MEAN_MOTION_DDOT": 0}, "tle": {"line1": "1 31985U 99025CPN 25347.98252450  .00001071  00000+0  43992-3 0  9995", "line2": "2 31985  98.2196 249.1254 0150425 243.0612 115.5134 14.22977716956281"}}, "geometry": {"type": "Point", "coordinates": [-89.22268128193646, -57.133841934910386]}}]}